[{"OBJECT_NAME":"TRANSPORTER-12 OBJECT F","OBJECT_ID":"2025-009F","EPOCH":"2026-03-09T18:25:14.947104","MEAN_MOTION":15.73813521,"ECCENTRICITY":0.00060767,"INCLINATION":97.386,"RA_OF_ASC_NODE":159.0379,"ARG_OF_PERICENTER":265.786,"MEAN_ANOMALY":94.271,"EPHEMERIS_TYPE":0,"CLASSIFICATION_TYPE":"U","NORAD_CAT_ID":62614,"ELEMENT_SET_NO":999,"REV_AT_EPOCH":6425,"BSTAR":0.0022214492,"MEAN_MOTION_DOT":0.00324599,"MEAN_MOTION_DDOT":0},{"OBJECT_NAME":"STARLINK-36566","OBJECT_ID":"2026-014V","EPOCH":"2026-03-09T15:08:32.935200","MEAN_MOTION":15.7527608,"ECCENTRICITY":0.0001533,"INCLINATION":97.2849,"RA_OF_ASC_NODE":313.5523,"ARG_OF_PERICENTER":117.3254,"MEAN_ANOMALY":242.8167,"EPHEMERIS_TYPE":0,"CLASSIFICATION_TYPE":"U","NORAD_CAT_ID":67551,"ELEMENT_SET_NO":999,"REV_AT_EPOCH":855,"BSTAR":0.0015199,"MEAN_MOTION_DOT":0.00233758,"MEAN_MOTION_DDOT":0}]
