TRANSPORTER-12 OBJECT F 
1 62614U 25009F   26068.76753411  .00324599  00000+0  22214-2 0  9995
2 62614  97.3860 159.0379 0006077 265.7860  94.2710 15.73813521 64258
STARLINK-36566          
1 67551U 26014V   26068.63093675  .00233758  00000+0  15199-2 0  9992
2 67551  97.2849 313.5523 0001533 117.3254 242.8167 15.75276080  8551
